NORAD_CAT_ID,OBJECT_NAME,OBJECT_TYPE,EPOCH,MEAN_MOTION,ECCENTRICITY,INCLINATION,RA_OF_ASC_NODE,ARG_OF_PERICENTER,MEAN_ANOMALY,BSTAR,MEAN_MOTION_DOT,MEAN_MOTION_DDOT,TLE_LINE0,TLE_LINE1,TLE_LINE2,SEMIMAJOR_AXIS,PERIOD,APOGEE,PERIGEE,DECAYED
52648.0,STARLINK-3854,PAYLOAD,2024-05-27 17:06:25,15.08834041,0.0001326,53.2185,301.477,82.7579,277.3563,0.00014903,2.084e-05,0.0,0 STARLINK-3854,1 52648U 22052BC  24148.71279696  .00002084  00000-0  14903-3 0  9996,2 52648  53.2185 301.4770 0001326  82.7579 277.3563 15.08834041113230,6917.899,95.438,540.681,538.846,0.0
52648.0,STARLINK-3854,PAYLOAD,2024-05-28 13:46:26,15.08836209,0.0001078,53.2188,297.6069,107.3386,252.7724,0.00026566,3.942e-05,0.0,0 STARLINK-3854,1 52648U 22052BC  24149.57391263  .00003942  00000-0  26566-3 0  9998,2 52648  53.2188 297.6069 0001078 107.3386 252.7724 15.08836209112989,6917.892,95.438,540.503,539.011,0.0
52648.0,STARLINK-3854,PAYLOAD,2024-05-28 16:57:12,15.08837299,9.96e-05,53.2184,297.0122,99.9322,260.1783,0.00028866,4.309e-05,0.0,0 STARLINK-3854,1 52648U 22052BC  24149.70639460  .00004309  00000-0  28866-3 0  9990,2 52648  53.2184 297.0122 0000996  99.9322 260.1783 15.08837299113005,6917.889,95.438,540.443,539.065,0.0
52648.0,STARLINK-3854,PAYLOAD,2024-05-29 13:37:13,15.0884657,0.000104,53.2182,293.1448,95.5264,264.5847,2.9019e-05,1.74e-06,0.0,0 STARLINK-3854,1 52648U 22052BC  24150.56751443  .00000174  00000-0  29019-4 0  9990,2 52648  53.2182 293.1448 0001040  95.5264 264.5847 15.08846570113134,6917.86,95.437,540.445,539.006,0.0
52648.0,STARLINK-3854,PAYLOAD,2024-05-29 19:58:45,15.08847171,0.0001057,53.2182,291.9566,97.8146,262.2966,2.6624e-05,1.36e-06,0.0,0 STARLINK-3854,1 52648U 22052BC  24150.83247292  .00000136  00000-0  26624-4 0  9999,2 52648  53.2182 291.9566 0001057  97.8146 262.2966 15.08847171113554,6917.858,95.437,540.455,538.992,0.0
52648.0,STARLINK-3854,PAYLOAD,2024-05-30 13:28:00,15.08843461,0.0001119,53.2185,288.686,86.9194,273.1926,4.26e-05,3.9e-06,0.0,0 STARLINK-3854,1 52648U 22052BC  24151.56111285  .00000390  00000-0  42600-4 0  9996,2 52648  53.2185 288.6860 0001119  86.9194 273.1926 15.08843461113283,6917.87,95.437,540.509,538.961,0.0
52648.0,STARLINK-3854,PAYLOAD,2024-05-30 16:38:46,15.08847635,0.0001105,53.2178,288.0899,80.9053,279.2064,7.5606e-05,9.16e-06,0.0,0 STARLINK-3854,1 52648U 22052BC  24151.69358889  .00000916  00000-0  75606-4 0  9999,2 52648  53.2178 288.0899 0001105  80.9053 279.2064 15.08847635113304,6917.857,95.437,540.486,538.958,0.0
52648.0,STARLINK-3854,PAYLOAD,2024-05-31 13:18:46,15.08843113,0.0001136,53.2174,284.224,80.4284,279.6836,9.6913e-05,1.255e-05,0.0,0 STARLINK-3854,1 52648U 22052BC  24152.55470924  .00001255  00000-0  96913-4 0  9991,2 52648  53.2174 284.2240 0001136  80.4284 279.6836 15.08843113113435,6917.871,95.437,540.522,538.95,0.0
52648.0,STARLINK-3854,PAYLOAD,2024-05-31 18:04:55,15.08849989,9.38e-05,53.217,283.3332,93.2161,266.8938,0.00011043,1.471e-05,0.0,0 STARLINK-3854,1 52648U 22052BC  24152.75342297  .00001471  00000-0  11043-3 0  9994,2 52648  53.2170 283.3332 0000938  93.2161 266.8938 15.08849989113841,6917.85,95.437,540.364,539.066,0.0
52648.0,STARLINK-3854,PAYLOAD,2024-06-01 13:09:34,15.08831905,0.0001325,53.2174,279.7649,89.5476,270.5668,6.8576e-07,-2.77e-06,0.0,0 STARLINK-3854,1 52648U 22052BC  24153.54831757 -.00000277  00000-0  68576-6 0  9996,2 52648  53.2174 279.7649 0001325  89.5476 270.5668 15.08831905113967,6917.905,95.438,540.687,538.854,0.0
52648.0,STARLINK-3854,PAYLOAD,2024-06-01 14:44:57,15.08830542,0.0001216,53.2186,279.4673,90.1986,269.9145,-1.677e-05,-5.55e-06,0.0,0 STARLINK-3854,1 52648U 22052BC  24153.61455965 -.00000555  00000-0 -16770-4 0  9994,2 52648  53.2186 279.4673 0001216  90.1986 269.9145 15.08830542113594,6917.909,95.438,540.616,538.933,0.0
52648.0,STARLINK-3854,PAYLOAD,2024-06-01 17:55:43,15.08839725,0.0001267,53.2174,278.8696,100.8341,259.2794,-3.1805e-05,-7.94e-06,0.0,0 STARLINK-3854,1 52648U 22052BC  24153.74703302 -.00000794  00000-0 -31805-4 0  9990,2 52648  53.2174 278.8696 0001267 100.8341 259.2794 15.08839725113997,6917.881,95.438,540.623,538.87,0.0
52648.0,STARLINK-3854,PAYLOAD,2024-06-02 01:52:38,15.08847331,0.0001298,53.2179,277.3844,98.1907,261.9233,2.9707e-05,1.85e-06,0.0,0 STARLINK-3854,1 52648U 22052BC  24154.07822625  .00000185  00000-0  29707-4 0  9997,2 52648  53.2179 277.3844 0001298  98.1907 261.9233 15.08847331114049,6917.858,95.437,540.621,538.825,0.0
52648.0,STARLINK-3854,PAYLOAD,2024-06-02 11:24:57,15.08837709,0.0001357,53.2198,275.6006,104.015,256.0993,9.8329e-05,1.277e-05,0.0,0 STARLINK-3854,1 52648U 22052BC  24154.47567128  .00001277  00000-0  98329-4 0  9994,2 52648  53.2198 275.6006 0001357 104.0150 256.0993 15.08837709114107,6917.887,95.438,540.691,538.814,0.0
52648.0,STARLINK-3854,PAYLOAD,2024-06-02 14:35:44,15.08836215,0.0001147,53.2196,275.0065,104.7174,255.3945,0.00010654,1.408e-05,0.0,0 STARLINK-3854,1 52648U 22052BC  24154.60815216  .00001408  00000-0  10654-3 0  9993,2 52648  53.2196 275.0065 0001147 104.7174 255.3945 15.08836215113743,6917.892,95.438,540.55,538.963,0.0
52648.0,STARLINK-3854,PAYLOAD,2024-06-02 17:46:30,15.08843551,0.0001347,53.2188,274.4117,102.0291,258.0852,2.0399e-05,3.7e-07,0.0,0 STARLINK-3854,1 52648U 22052BC  24154.74063047  .00000037  00000-0  20399-4 0  9990,2 52648  53.2188 274.4117 0001347 102.0291 258.0852 15.08843551113768,6917.87,95.437,540.666,538.803,0.0
52648.0,STARLINK-3854,PAYLOAD,2024-06-03 14:26:31,15.0883543,0.0001114,53.2164,270.5455,85.8466,274.2653,0.00013915,1.927e-05,0.0,0 STARLINK-3854,1 52648U 22052BC  24155.60175460  .00001927  00000-0  13915-3 0  9993,2 52648  53.2164 270.5455 0001114  85.8466 274.2653 15.08835430113898,6917.894,95.438,540.53,538.989,0.0
52648.0,STARLINK-3854,PAYLOAD,2024-06-04 14:17:18,15.08838782,0.0001123,53.2163,266.0848,90.1071,270.005,8.9868e-05,1.143e-05,0.0,0 STARLINK-3854,1 52648U 22052BC  24156.59535583  .00001143  00000-0  89868-4 0  9999,2 52648  53.2163 266.0848 0001123  90.1071 270.0050 15.08838782114040,6917.884,95.438,540.526,538.972,0.0
52648.0,STARLINK-3854,PAYLOAD,2024-06-04 23:49:36,15.08856046,8.92e-05,53.2155,264.2993,82.8779,277.2314,0.0001995,2.89e-05,0.0,0 STARLINK-3854,1 52648U 22052BC  24156.99277990  .00002890  00000-0  19950-3 0  9992,2 52648  53.2155 264.2993 0000892  82.8779 277.2314 15.08856046114480,6917.831,95.437,540.313,539.079,0.0
52648.0,STARLINK-3854,PAYLOAD,2024-06-05 12:32:44,15.0882142,0.0001178,53.2181,261.9252,90.2943,269.8184,-3.7593e-05,-8.86e-06,0.0,0 STARLINK-3854,1 52648U 22052BC  24157.52273316 -.00000886  00000-0 -37593-4 0  9999,2 52648  53.2181 261.9252 0001178  90.2943 269.8184 15.08821420114564,6917.937,95.439,540.617,538.987,0.0
52648.0,STARLINK-3854,PAYLOAD,2024-06-05 14:08:07,15.0882333,0.0001159,53.2186,261.6302,91.4687,268.6438,-4.7867e-06,-3.64e-06,0.0,0 STARLINK-3854,1 52648U 22052BC  24157.58897227 -.00000364  00000-0 -47867-5 0  9995,2 52648  53.2186 261.6302 0001159  91.4687 268.6438 15.08823330114199,6917.931,95.439,540.598,538.995,0.0
52648.0,STARLINK-3854,PAYLOAD,2024-06-05 17:18:53,15.08829053,0.0001085,53.2167,261.0303,86.2246,273.8871,5.9275e-06,-1.93e-06,0.0,0 STARLINK-3854,1 52648U 22052BC  24157.72144884 -.00000193  00000-0  59275-5 0  9990,2 52648  53.2167 261.0303 0001085  86.2246 273.8871 15.08829053114595,6917.914,95.438,540.529,539.028,0.0
52648.0,STARLINK-3854,PAYLOAD,2024-06-05 23:40:25,15.08839839,0.0001116,53.2181,259.8413,81.4287,278.6831,0.0001144,1.533e-05,0.0,0 STARLINK-3854,1 52648U 22052BC  24157.98640079  .00001533  00000-0  11440-3 0  9993,2 52648  53.2181 259.8413 0001116  81.4287 278.6831 15.08839839114632,6917.881,95.438,540.518,538.974,0.0
52648.0,STARLINK-3854,PAYLOAD,2024-06-06 12:23:30,15.08839837,0.000158,53.2177,257.4643,93.2467,266.8706,2.7335e-05,1.47e-06,0.0,0 STARLINK-3854,1 52648U 22052BC  24158.51632546  .00000147  00000-0  27335-4 0  9994,2 52648  53.2177 257.4643 0001580  93.2467 266.8706 15.08839837114337,6917.881,95.438,540.839,538.653,0.0
52648.0,STARLINK-3854,PAYLOAD,2024-06-07 15:25:03,15.0883641,0.0001077,53.2167,252.4066,100.3205,259.7908,0.00017566,2.509e-05,0.0,0 STARLINK-3854,1 52648U 22052BC  24159.64240469  .00002509  00000-0  17566-3 0  9996,2 52648  53.2167 252.4066 0001077 100.3205 259.7908 15.08836410114880,6917.891,95.438,540.501,539.011,0.0
52648.0,STARLINK-3854,PAYLOAD,2024-06-07 23:21:58,15.08849587,9.95e-05,53.2164,250.9215,97.6479,262.4626,0.00018023,2.582e-05,0.0,0 STARLINK-3854,1 52648U 22052BC  24159.97359683  .00002582  00000-0  18023-3 0  9991,2 52648  53.2164 250.9215 0000995  97.6479 262.4626 15.08849587114938,6917.851,95.437,540.404,539.028,0.0
52648.0,STARLINK-3854,PAYLOAD,2024-06-08 12:05:04,15.0884814,0.0001369,53.2165,248.5413,93.2119,266.903,0.00019211,2.771e-05,0.0,0 STARLINK-3854,1 52648U 22052BC  24160.50351931  .00002771  00000-0  19211-3 0  9990,2 52648  53.2165 248.5413 0001369  93.2119 266.9030 15.08848140114630,6917.856,95.437,540.668,538.773,0.0
52648.0,STARLINK-3854,PAYLOAD,2024-06-08 20:01:58,15.08866284,0.0001226,53.2165,247.0538,98.6944,261.4187,0.00033632,5.072e-05,0.0,0 STARLINK-3854,1 52648U 22052BC  24160.83470634  .00005072  00000-0  33632-3 0  9998,2 52648  53.2165 247.0538 0001226  98.6944 261.4187 15.08866284114686,6917.8,95.436,540.513,538.817,0.0
52648.0,STARLINK-3854,PAYLOAD,2024-06-08 23:12:45,15.08841085,0.000123,53.2156,246.4592,102.8011,257.3118,-2.0145e-05,-6.08e-06,0.0,0 STARLINK-3854,1 52648U 22052BC  24160.96719755 -.00000608  00000-0 -20145-4 0  9990,2 52648  53.2156 246.4592 0001230 102.8011 257.3118 15.08841085115082,6917.877,95.437,540.593,538.891,0.0
52648.0,STARLINK-3854,PAYLOAD,2024-06-09 11:55:51,15.08830101,0.0001336,53.2154,244.0801,115.8589,244.2541,-9.1378e-05,-1.741e-05,0.0,0 STARLINK-3854,1 52648U 22052BC  24161.49712589 -.00001741  00000-0 -91378-4 0  9992,2 52648  53.2154 244.0801 0001336 115.8589 244.2541 15.08830101115169,6917.911,95.438,540.7,538.851,0.0
